*******************************************************************************
JPL/HORIZONS               1870 Glaukos (1971 FE)          2023-Sep-04 11:14:38
Rec #:    1870 (+COV) Soln.date: 2023-Aug-22_12:19:20   # obs: 2869 (1955-2023)
 
IAU76/J2000 helio. ecliptic osc. elements (au, days, deg., period=Julian yrs):
 
  EPOCH=  2457567.5 ! 2016-Jun-28.00 (TDB)         Residual RMS= .27208
   EC= .03188814722526041  QR= 5.080259736213257   TP= 2455581.9273575968
   OM= 176.3020722604097   W=  131.0308161116597   IN= 6.575976214171628
   A= 5.247595845100487    MA= 162.7980823928526   ADIST= 5.414931953987717
   PER= 12.02123           N= .081990494           ANGMOM= .039385894
   DAN= 5.35434            DDN= 5.13477            L= 307.5202612
   B= 4.955925             MOID= 4.06960011        TP= 2011-Jan-20.4273575968
 
Asteroid physical parameters (km, seconds, rotational period in hours):
   GM= n.a.                RAD= 23.8245            ROTPER= 5.986
   H= 10.64                G= .150                 B-V= n.a.
                           ALBEDO= .049            STYP= n.a.

ASTEROID comments: 
1: soln ref.= JPL#49, OCC=0
2: source=ORB
*******************************************************************************


*******************************************************************************
Ephemeris / API_USER Mon Sep  4 11:14:39 2023 Pasadena, USA      / Horizons
*******************************************************************************
Target body name: 1870 Glaukos (1971 FE)          {source: JPL#49}
Center body name: Solar System Barycenter (0)     {source: DE441}
Center-site name: BODY CENTER
*******************************************************************************
Start time      : A.D. 2023-Aug-12 00:00:00.0000 TDB
Stop  time      : A.D. 2023-Aug-13 00:00:00.0000 TDB
Step-size       : 2880 minutes
*******************************************************************************
Center geodetic : 0.0, 0.0, 0.0                   {E-lon(deg),Lat(deg),Alt(km)}
Center cylindric: 0.0, 0.0, 0.0                   {E-lon(deg),Dxy(km),Dz(km)}
Center radii    : (undefined)
Small perturbers: Yes                             {source: SB441-N16}
Output units    : KM-S
Calendar mode   : Mixed Julian/Gregorian
Output type     : GEOMETRIC cartesian states
Output format   : 2 (position and velocity)
Reference frame : Ecliptic of J2000.0
*******************************************************************************
Initial IAU76/J2000 heliocentric ecliptic osculating elements (au, days, deg.):
  EPOCH=  2457567.5 ! 2016-Jun-28.00 (TDB)         Residual RMS= .27208        
   EC= .03188814722526041  QR= 5.080259736213257   TP= 2455581.9273575968      
   OM= 176.3020722604097   W=  131.0308161116597   IN= 6.575976214171628       
  Equivalent ICRF heliocentric cartesian coordinates (au, au/d):
   X=-1.955234733342301E+00  Y= 4.820689278321438E+00  Z= 1.477605516748113E+00
  VX=-6.814252060855230E-03 VY=-2.474973683575182E-03 VZ=-6.982662791169131E-04
Asteroid physical parameters (km, seconds, rotational period in hours):        
   GM= n.a.                RAD= 23.8245            ROTPER= 5.986               
   H= 10.64                G= .150                 B-V= n.a.                   
                           ALBEDO= .049            STYP= n.a.                  
*******************************************************************************
JDTDB
   X     Y     Z
   VX    VY    VZ
*******************************************************************************
$$SOE
2460168.500000000 = A.D. 2023-Aug-12 00:00:00.0000 TDB 
 X = 6.205756063413697E+08 Y =-4.326938991253418E+08 Z = 4.516808366204722E+07
 VX= 7.808156581827542E+00 VY= 1.084820047228871E+01 VZ=-1.308152353502679E+00
$$EOE
*******************************************************************************
 
TIME

  Barycentric Dynamical Time ("TDB" or T_eph) output was requested. This
continuous coordinate time is equivalent to the relativistic proper time
of a clock at rest in a reference frame co-moving with the solar system
barycenter but outside the system's gravity well. It is the independent
variable in the solar system relativistic equations of motion.

  TDB runs at a uniform rate of one SI second per second and is independent
of irregularities in Earth's rotation.
 
CALENDAR SYSTEM

  Mixed calendar mode was active such that calendar dates after AD 1582-Oct-15
(if any) are in the modern Gregorian system. Dates prior to 1582-Oct-5 (if any)
are in the Julian calendar system, which is automatically extended for dates
prior to its adoption on 45-Jan-1 BC.  The Julian calendar is useful for
matching historical dates. The Gregorian calendar more accurately corresponds
to the Earth's orbital motion and seasons. A "Gregorian-only" calendar mode is
available if such physical events are the primary interest.

REFERENCE FRAME AND COORDINATES

  Ecliptic at the standard reference epoch

    Reference epoch: J2000.0
    X-Y plane: adopted Earth orbital plane at the reference epoch
               Note: IAU76 obliquity of 84381.448 arcseconds wrt ICRF X-Y plane
    X-axis   : ICRF
    Z-axis   : perpendicular to the X-Y plane in the directional (+ or -) sense
               of Earth's north pole at the reference epoch.

  Symbol meaning:

    JDTDB    Julian Day Number, Barycentric Dynamical Time
      X      X-component of position vector (km)
      Y      Y-component of position vector (km)
      Z      Z-component of position vector (km)
      VX     X-component of velocity vector (km/sec)                           
      VY     Y-component of velocity vector (km/sec)                           
      VZ     Z-component of velocity vector (km/sec)                           

ABERRATIONS AND CORRECTIONS

 Geometric state vectors have NO corrections or aberrations applied.

Computations by ...

    Solar System Dynamics Group, Horizons On-Line Ephemeris System
    4800 Oak Grove Drive, Jet Propulsion Laboratory
    Pasadena, CA  91109   USA

    General site: https://ssd.jpl.nasa.gov/
    Mailing list: https://ssd.jpl.nasa.gov/email_list.html
    System news : https://ssd.jpl.nasa.gov/horizons/news.html
    User Guide  : https://ssd.jpl.nasa.gov/horizons/manual.html
    Connect     : browser        https://ssd.jpl.nasa.gov/horizons/app.html#/x
                  API            https://ssd-api.jpl.nasa.gov/doc/horizons.html
                  command-line   telnet ssd.jpl.nasa.gov 6775
                  e-mail/batch   https://ssd.jpl.nasa.gov/ftp/ssd/hrzn_batch.txt
                  scripts        https://ssd.jpl.nasa.gov/ftp/ssd/SCRIPTS
    Author      : Jon.D.Giorgini@jpl.nasa.gov
*******************************************************************************
